start=new Date('2021-11-19T00:00:00.000Z').valueOf();
sats=[{"EPHEMERIS_TYPE":"0","LAUNCH_DATE":"2021-05-04","ARG_OF_PERICENTER":"74.2080","BSTAR":"-0.00003221500000","ECCENTRICITY":"0.00015820","OBJECT_NAME":"STARLINK-2626","MEAN_MOTION_DDOT":"0.0000000000000","CENTER_NAME":"EARTH","OBJECT_ID":"2021-038L","INCLINATION":"53.0549","ELEMENT_SET_NO":"999","MEAN_MOTION":"15.06401537","RA_OF_ASC_NODE":"212.8361","SEMIMAJOR_AXIS":"6925.344","REF_FRAME":"TEME","TLE_LINE1":"1 48363U 21038L   21322.85732533 -.00000761  00000-0 -32215-4 0  9997","PERIOD":"95.592","PERIAPSIS":"546.113","MEAN_ANOMALY":"285.9083","MEAN_ELEMENT_THEORY":"SGP4","RCS_SIZE":"LARGE","TLE_LINE2":"2 48363  53.0549 212.8361 0001582  74.2080 285.9083 15.06401537 30181","CLASSIFICATION_TYPE":"U","OBJECT_TYPE":"PAYLOAD","FILE":"3218669","SITE":"AFETR","TIME_SYSTEM":"UTC","COUNTRY_CODE":"US","MEAN_MOTION_DOT":"-0.00000761","NORAD_CAT_ID":"48363","GP_ID":"190040056","APOAPSIS":"548.304","DECAY_DATE":null,"EPOCH":"2021-11-18T20:34:32.908512","REV_AT_EPOCH":"3018"},{"EPHEMERIS_TYPE":"0","LAUNCH_DATE":"2021-05-04","ARG_OF_PERICENTER":"68.0701","OBJECT_NAME":"STARLINK-2611","ECCENTRICITY":"0.00020390","BSTAR":"-0.00002285300000","CENTER_NAME":"EARTH","MEAN_MOTION_DDOT":"0.0000000000000","OBJECT_ID":"2021-038M","INCLINATION":"53.0555","ELEMENT_SET_NO":"999","MEAN_MOTION":"15.06400688","RA_OF_ASC_NODE":"213.4551","PERIOD":"95.592","TLE_LINE1":"1 48364U 21038M   21322.72000632 -.00000622  00000-0 -22853-4 0  9995","REF_FRAME":"TEME","SEMIMAJOR_AXIS":"6925.346","MEAN_ANOMALY":"292.0505","PERIAPSIS":"545.799","MEAN_ELEMENT_THEORY":"SGP4","TLE_LINE2":"2 48364  53.0555 213.4551 0002039  68.0701 292.0505 15.06400688 30168","RCS_SIZE":"LARGE","CLASSIFICATION_TYPE":"U","FILE":"3218669","OBJECT_TYPE":"PAYLOAD","SITE":"AFETR","TIME_SYSTEM":"UTC","COUNTRY_CODE":"US","MEAN_MOTION_DOT":"-0.00000622","GP_ID":"190040307","NORAD_CAT_ID":"48364","APOAPSIS":"548.624","DECAY_DATE":null,"EPOCH":"2021-11-18T17:16:48.546048","REV_AT_EPOCH":"3016"},{"SEMIMAJOR_AXIS":"6925.361","PERIOD":"95.592","TLE_LINE1":"1 48365U 21038N   21322.69883331  .00000939  00000-0  81948-4 0  9996","REF_FRAME":"TEME","RA_OF_ASC_NODE":"213.5562","MEAN_MOTION":"15.06395929","ELEMENT_SET_NO":"999","OBJECT_ID":"2021-038N","INCLINATION":"53.0558","MEAN_MOTION_DDOT":"0.0000000000000","CENTER_NAME":"EARTH","BSTAR":"0.00008194800000","ECCENTRICITY":"0.00017230","OBJECT_NAME":"STARLINK-2608","ARG_OF_PERICENTER":"78.7540","LAUNCH_DATE":"2021-05-04","EPHEMERIS_TYPE":"0","CLASSIFICATION_TYPE":"U","RCS_SIZE":"LARGE","TLE_LINE2":"2 48365  53.0558 213.5562 0001723  78.7540 281.3642 15.06395929 30167","MEAN_ELEMENT_THEORY":"SGP4","MEAN_ANOMALY":"281.3642","PERIAPSIS":"546.033","MEAN_MOTION_DOT":"0.00000939","COUNTRY_CODE":"US","TIME_SYSTEM":"UTC","SITE":"AFETR","OBJECT_TYPE":"PAYLOAD","FILE":"3218669","REV_AT_EPOCH":"3016","EPOCH":"2021-11-18T16:46:19.197984","APOAPSIS":"548.419","DECAY_DATE":null,"NORAD_CAT_ID":"48365","GP_ID":"190039055"},{"REV_AT_EPOCH":"3025","EPOCH":"2021-11-18T21:15:01.110528","DECAY_DATE":null,"APOAPSIS":"548.423","GP_ID":"190039305","NORAD_CAT_ID":"48366","MEAN_MOTION_DOT":"-0.00000022","COUNTRY_CODE":"US","TIME_SYSTEM":"UTC","SITE":"AFETR","FILE":"3218669","OBJECT_TYPE":"PAYLOAD","CLASSIFICATION_TYPE":"U","TLE_LINE2":"2 48366  53.0547 207.7117 0001768  76.9955 283.1232 15.06404962 30259","RCS_SIZE":"LARGE","MEAN_ELEMENT_THEORY":"SGP4","MEAN_ANOMALY":"283.1232","PERIAPSIS":"545.974","REF_FRAME":"TEME","TLE_LINE1":"1 48366U 21038P   21322.88542952 -.00000022  00000-0  17412-4 0  9998","PERIOD":"95.592","SEMIMAJOR_AXIS":"6925.333","RA_OF_ASC_NODE":"207.7117","MEAN_MOTION":"15.06404962","ELEMENT_SET_NO":"999","INCLINATION":"53.0547","OBJECT_ID":"2021-038P","CENTER_NAME":"EARTH","MEAN_MOTION_DDOT":"0.0000000000000","ECCENTRICITY":"0.00017680","OBJECT_NAME":"STARLINK-2631","BSTAR":"0.00001741200000","ARG_OF_PERICENTER":"76.9955","LAUNCH_DATE":"2021-05-04","EPHEMERIS_TYPE":"0"},{"RA_OF_ASC_NODE":"208.6327","MEAN_MOTION":"15.06396776","SEMIMAJOR_AXIS":"6925.358","TLE_LINE1":"1 48367U 21038Q   21322.68270962 -.00000100  00000-0  12188-4 0  9998","REF_FRAME":"TEME","PERIOD":"95.592","INCLINATION":"53.0559","OBJECT_ID":"2021-038Q","ELEMENT_SET_NO":"999","BSTAR":"0.00001218800000","ECCENTRICITY":"0.00018720","OBJECT_NAME":"STARLINK-2643","MEAN_MOTION_DDOT":"0.0000000000000","CENTER_NAME":"EARTH","LAUNCH_DATE":"2021-05-04","EPHEMERIS_TYPE":"0","ARG_OF_PERICENTER":"78.5624","CLASSIFICATION_TYPE":"U","RCS_SIZE":"LARGE","TLE_LINE2":"2 48367  53.0559 208.6327 0001872  78.5624 281.5575 15.06396776 30225","MEAN_ELEMENT_THEORY":"SGP4","MEAN_ANOMALY":"281.5575","PERIAPSIS":"545.927","MEAN_MOTION_DOT":"-0.00000100","COUNTRY_CODE":"US","SITE":"AFETR","TIME_SYSTEM":"UTC","OBJECT_TYPE":"PAYLOAD","FILE":"3218669","REV_AT_EPOCH":"3022","EPOCH":"2021-11-18T16:23:06.111168","NORAD_CAT_ID":"48367","GP_ID":"190039557","DECAY_DATE":null,"APOAPSIS":"548.520"},{"OBJECT_TYPE":"PAYLOAD","FILE":"3218461","TIME_SYSTEM":"UTC","SITE":"AFETR","COUNTRY_CODE":"US","MEAN_MOTION_DOT":"0.00000102","DECAY_DATE":null,"APOAPSIS":"548.413","NORAD_CAT_ID":"48368","GP_ID":"190011968","EPOCH":"2021-11-18T02:28:24.979296","REV_AT_EPOCH":"3014","ARG_OF_PERICENTER":"80.7554","EPHEMERIS_TYPE":"0","LAUNCH_DATE":"2021-05-04","MEAN_MOTION_DDOT":"0.0000000000000","CENTER_NAME":"EARTH","BSTAR":"0.00002576700000","OBJECT_NAME":"STARLINK-2623","ECCENTRICITY":"0.00017500","ELEMENT_SET_NO":"999","INCLINATION":"53.0545","OBJECT_ID":"2021-038R","SEMIMAJOR_AXIS":"6925.336","TLE_LINE1":"1 48368U 21038R   21322.10306689  .00000102  00000-0  25767-4 0  9990","PERIOD":"95.592","REF_FRAME":"TEME","MEAN_MOTION":"15.06404185","RA_OF_ASC_NODE":"211.2213","MEAN_ANOMALY":"279.3633","PERIAPSIS":"545.989","MEAN_ELEMENT_THEORY":"SGP4","RCS_SIZE":"LARGE","TLE_LINE2":"2 48368  53.0545 211.2213 0001750  80.7554 279.3633 15.06404185 30142","CLASSIFICATION_TYPE":"U"},{"REV_AT_EPOCH":"3022","GP_ID":"190038556","NORAD_CAT_ID":"48369","DECAY_DATE":null,"APOAPSIS":"548.528","EPOCH":"2021-11-18T16:17:48.210144","COUNTRY_CODE":"US","MEAN_MOTION_DOT":"-0.00000441","FILE":"3218669","OBJECT_TYPE":"PAYLOAD","SITE":"AFETR","TIME_SYSTEM":"UTC","TLE_LINE2":"2 48369  53.0532 208.6414 0001884  67.4026 292.7162 15.06396869 30220","RCS_SIZE":"LARGE","CLASSIFICATION_TYPE":"U","MEAN_ANOMALY":"292.7162","PERIAPSIS":"545.918","MEAN_ELEMENT_THEORY":"SGP4","OBJECT_ID":"2021-038S","INCLINATION":"53.0532","ELEMENT_SET_NO":"999","RA_OF_ASC_NODE":"208.6414","MEAN_MOTION":"15.06396869","TLE_LINE1":"1 48369U 21038S   21322.67903021 -.00000441  00000-0 -10730-4 0  9998","PERIOD":"95.592","REF_FRAME":"TEME","SEMIMAJOR_AXIS":"6925.358","EPHEMERIS_TYPE":"0","LAUNCH_DATE":"2021-05-04","ARG_OF_PERICENTER":"67.4026","ECCENTRICITY":"0.00018840","OBJECT_NAME":"STARLINK-2641","BSTAR":"-0.00001073000000","CENTER_NAME":"EARTH","MEAN_MOTION_DDOT":"0.0000000000000"},{"OBJECT_TYPE":"PAYLOAD","FILE":"3218669","SITE":"AFETR","TIME_SYSTEM":"UTC","COUNTRY_CODE":"US","MEAN_MOTION_DOT":"0.00001383","NORAD_CAT_ID":"48370","GP_ID":"190038806","DECAY_DATE":null,"APOAPSIS":"548.443","EPOCH":"2021-11-18T16:12:29.001888","REV_AT_EPOCH":"3022","EPHEMERIS_TYPE":"0","LAUNCH_DATE":"2021-05-04","ARG_OF_PERICENTER":"70.4069","BSTAR":"0.00011172000000","ECCENTRICITY":"0.00017570","OBJECT_NAME":"STARLINK-2621","MEAN_MOTION_DDOT":"0.0000000000000","CENTER_NAME":"EARTH","OBJECT_ID":"2021-038T","INCLINATION":"53.0545","ELEMENT_SET_NO":"999","MEAN_MOTION":"15.06395872","RA_OF_ASC_NODE":"208.6560","SEMIMAJOR_AXIS":"6925.361","PERIOD":"95.592","TLE_LINE1":"1 48370U 21038T   21322.67533567  .00001383  00000-0  11172-3 0  9998","REF_FRAME":"TEME","PERIAPSIS":"546.009","MEAN_ANOMALY":"289.7109","MEAN_ELEMENT_THEORY":"SGP4","RCS_SIZE":"LARGE","TLE_LINE2":"2 48370  53.0545 208.6560 0001757  70.4069 289.7109 15.06395872 30228","CLASSIFICATION_TYPE":"U"},{"COUNTRY_CODE":"US","MEAN_MOTION_DOT":"-0.00000781","FILE":"3218669","OBJECT_TYPE":"PAYLOAD","TIME_SYSTEM":"UTC","SITE":"AFETR","REV_AT_EPOCH":"3025","DECAY_DATE":null,"APOAPSIS":"548.423","GP_ID":"190040057","NORAD_CAT_ID":"48371","EPOCH":"2021-11-18T20:53:48.079968","ELEMENT_SET_NO":"999","OBJECT_ID":"2021-038U","INCLINATION":"53.0554","REF_FRAME":"TEME","TLE_LINE1":"1 48371U 21038U   21322.87069537 -.00000781  00000-0 -33523-4 0  9990","PERIOD":"95.593","SEMIMAJOR_AXIS":"6925.377","MEAN_MOTION":"15.06390753","RA_OF_ASC_NODE":"207.7865","ARG_OF_PERICENTER":"67.0715","EPHEMERIS_TYPE":"0","LAUNCH_DATE":"2021-05-04","CENTER_NAME":"EARTH","MEAN_MOTION_DDOT":"0.0000000000000","ECCENTRICITY":"0.00017050","OBJECT_NAME":"STARLINK-2589","BSTAR":"-0.00003352300000","TLE_LINE2":"2 48371  53.0554 207.7865 0001705  67.0715 293.0453 15.06390753 30256","RCS_SIZE":"LARGE","CLASSIFICATION_TYPE":"U","PERIAPSIS":"546.061","MEAN_ANOMALY":"293.0453","MEAN_ELEMENT_THEORY":"SGP4"},{"COUNTRY_CODE":"US","MEAN_MOTION_DOT":"0.00000888","FILE":"3218669","OBJECT_TYPE":"PAYLOAD","SITE":"AFETR","TIME_SYSTEM":"UTC","REV_AT_EPOCH":"3024","GP_ID":"190040308","NORAD_CAT_ID":"48372","DECAY_DATE":null,"APOAPSIS":"548.429","EPOCH":"2021-11-18T19:12:56.710368","INCLINATION":"53.0557","OBJECT_ID":"2021-038V","ELEMENT_SET_NO":"999","RA_OF_ASC_NODE":"208.0974","MEAN_MOTION":"15.06396002","PERIOD":"95.592","TLE_LINE1":"1 48372U 21038V   21322.80065637  .00000888  00000-0  78520-4 0  9993","REF_FRAME":"TEME","SEMIMAJOR_AXIS":"6925.361","EPHEMERIS_TYPE":"0","LAUNCH_DATE":"2021-05-04","ARG_OF_PERICENTER":"76.5601","OBJECT_NAME":"STARLINK-2572","ECCENTRICITY":"0.00017370","BSTAR":"0.00007852000000","CENTER_NAME":"EARTH","MEAN_MOTION_DDOT":"0.0000000000000","TLE_LINE2":"2 48372  53.0557 208.0974 0001737  76.5601 283.5582 15.06396002 30248","RCS_SIZE":"LARGE","CLASSIFICATION_TYPE":"U","MEAN_ANOMALY":"283.5582","PERIAPSIS":"546.023","MEAN_ELEMENT_THEORY":"SGP4"}];
